{
"type": "FeatureCollection",
"name": "campus_boundary",
"crs": { "type": "name", "properties": { "name": "urn:ogc:def:crs:OGC:1.3:CRS84" } },
"features": [
{ "type": "Feature", "properties": { }, "geometry": { "type": "Polygon", "coordinates": [ [ [ 121.44155012757561, 31.036935492247935 ], [ 121.446525027949292, 31.025567695689997 ], [ 121.452958433251737, 31.027451008769802 ], [ 121.450520931863863, 31.033665677739222 ], [ 121.457763710702153, 31.03483849543867 ], [ 121.457276363096724, 31.037935863398225 ], [ 121.452841100000015, 31.037403 ], [ 121.451433899999969, 31.0399357 ], [ 121.44155012757561, 31.036935492247935 ] ] ] } }
]
}
